{
  "type": "FeatureCollection",
  "features": [
    {
      "type": "Feature",
      "properties": {
        "norad_id": 36036,
        "name": "SMOS",
        "group": "resource",
        "lat": 55.71155538966526,
        "lon": 159.83240931452045,
        "alt_km": 753.307264098823,
        "timestamp": "2025-12-13T08:49:15.350239+00:00",
        "meta_object_name": "SMOS",
        "meta_object_id": "2009-059A",
        "meta_epoch": "2025-12-13T00:13:08.932224",
        "meta_mean_motion": 14.39741491,
        "meta_eccentricity": 0.00011082,
        "meta_inclination": 98.438,
        "meta_ra_of_asc_node": 172.0535,
        "meta_arg_of_pericenter": 83.8778,
        "meta_mean_anomaly": 276.2537,
        "meta_ephemeris_type": 0,
        "meta_classification_type": "U",
        "meta_norad_cat_id": 36036,
        "meta_element_set_no": 999,
        "meta_rev_at_epoch": 84666,
        "meta_bstar": 0.00019924799,
        "meta_mean_motion_dot": 5.81e-06,
        "meta_mean_motion_ddot": 0,
        "tle_line1": "1 36036U 09059A   25347.00913116  .00000581  00000+0  19925-3 0  9995",
        "tle_line2": "2 36036  98.4380 172.0535 0001108  83.8778 276.2537 14.39741491846661"
      },
      "geometry": {
        "type": "Point",
        "coordinates": [
          159.83240931452045,
          55.71155538966526
        ]
      }
    },
    {
      "type": "Feature",
      "properties": {
        "norad_id": 36110,
        "name": "YAOGAN-7",
        "group": "resource",
        "lat": -32.167440677137975,
        "lon": -125.78408657323523,
        "alt_km": 631.6601876681325,
        "timestamp": "2025-12-13T08:49:15.350249+00:00",
        "meta_object_name": "YAOGAN-7",
        "meta_object_id": "2009-069A",
        "meta_epoch": "2025-12-12T15:05:29.426784",
        "meta_mean_motion": 14.77732535,
        "meta_eccentricity": 0.00233806,
        "meta_inclination": 98.03,
        "meta_ra_of_asc_node": 228.3862,
        "meta_arg_of_pericenter": 281.6698,
        "meta_mean_anomaly": 78.1889,
        "meta_ephemeris_type": 0,
        "meta_classification_type": "U",
        "meta_norad_cat_id": 36110,
        "meta_element_set_no": 999,
        "meta_rev_at_epoch": 86207,
        "meta_bstar": 0.0001602639,
        "meta_mean_motion_dot": 1.1e-05,
        "meta_mean_motion_ddot": 0,
        "tle_line1": "1 36110U 09069A   25346.62881281  .00001100  00000+0  16026-3 0  9990",
        "tle_line2": "2 36110  98.0300 228.3862 0023380 281.6698  78.1889 14.77732535862078"
      },
      "geometry": {
        "type": "Point",
        "coordinates": [
          -125.78408657323523,
          -32.167440677137975
        ]
      }
    },
    {
      "type": "Feature",
      "properties": {
        "norad_id": 36605,
        "name": "TANDEM-X",
        "group": "resource",
        "lat": -52.9223450961846,
        "lon": 2.7035438613220903,
        "alt_km": 516.3764377204052,
        "timestamp": "2025-12-13T08:49:15.350260+00:00",
        "meta_object_name": "TANDEM-X",
        "meta_object_id": "2010-030A",
        "meta_epoch": "2025-12-12T12:30:19.785312",
        "meta_mean_motion": 15.19147619,
        "meta_eccentricity": 0.00017615,
        "meta_inclination": 97.4455,
        "meta_ra_of_asc_node": 351.9037,
        "meta_arg_of_pericenter": 90.78,
        "meta_mean_anomaly": 269.3636,
        "meta_ephemeris_type": 0,
        "meta_classification_type": "U",
        "meta_norad_cat_id": 36605,
        "meta_element_set_no": 999,
        "meta_rev_at_epoch": 85830,
        "meta_bstar": 0.00012546262,
        "meta_mean_motion_dot": 2.568e-05,
        "meta_mean_motion_ddot": 0,
        "tle_line1": "1 36605U 10030A   25346.52106233  .00002568  00000+0  12546-3 0  9997",
        "tle_line2": "2 36605  97.4455 351.9037 0001761  90.7800 269.3636 15.19147619858306"
      },
      "geometry": {
        "type": "Point",
        "coordinates": [
          2.7035438613220903,
          -52.9223450961846
        ]
      }
    },
    {
      "type": "Feature",
      "properties": {
        "norad_id": 36795,
        "name": "CARTOSAT-2B",
        "group": "resource",
        "lat": -74.92636017339487,
        "lon": -174.15238798655105,
        "alt_km": 649.8181923459506,
        "timestamp": "2025-12-13T08:49:15.350270+00:00",
        "meta_object_name": "CARTOSAT-2B",
        "meta_object_id": "2010-035A",
        "meta_epoch": "2025-12-13T01:09:59.732064",
        "meta_mean_motion": 14.78726473,
        "meta_eccentricity": 0.00130563,
        "meta_inclination": 97.7853,
        "meta_ra_of_asc_node": 36.0686,
        "meta_arg_of_pericenter": 75.6783,
        "meta_mean_anomaly": 284.5877,
        "meta_ephemeris_type": 0,
        "meta_classification_type": "U",
        "meta_norad_cat_id": 36795,
        "meta_element_set_no": 999,
        "meta_rev_at_epoch": 83234,
        "meta_bstar": 0.0002553001,
        "meta_mean_motion_dot": 1.826e-05,
        "meta_mean_motion_ddot": 0,
        "tle_line1": "1 36795U 10035A   25347.04860801  .00001826  00000+0  25530-3 0  9991",
        "tle_line2": "2 36795  97.7853  36.0686 0013056  75.6783 284.5877 14.78726473832341"
      },
      "geometry": {
        "type": "Point",
        "coordinates": [
          -174.15238798655105,
          -74.92636017339487
        ]
      }
    },
    {
      "type": "Feature",
      "properties": {
        "norad_id": 36834,
        "name": "YAOGAN-10",
        "group": "resource",
        "lat": -9.55338347688618,
        "lon": 8.52539358827648,
        "alt_km": 618.9878107435879,
        "timestamp": "2025-12-13T08:49:15.350281+00:00",
        "meta_object_name": "YAOGAN-10",
        "meta_object_id": "2010-038A",
        "meta_epoch": "2025-12-13T01:07:45.375744",
        "meta_mean_motion": 14.84612546,
        "meta_eccentricity": 0.00015338,
        "meta_inclination": 97.915,
        "meta_ra_of_asc_node": 6.8656,
        "meta_arg_of_pericenter": 82.1075,
        "meta_mean_anomaly": 356.5611,
        "meta_ephemeris_type": 0,
        "meta_classification_type": "U",
        "meta_norad_cat_id": 36834,
        "meta_element_set_no": 999,
        "meta_rev_at_epoch": 82958,
        "meta_bstar": 0.00044371101,
        "meta_mean_motion_dot": 3.696e-05,
        "meta_mean_motion_ddot": 0,
        "tle_line1": "1 36834U 10038A   25347.04705296  .00003696  00000+0  44371-3 0  9995",
        "tle_line2": "2 36834  97.9150   6.8656 0001533  82.1075 356.5611 14.84612546829583"
      },
      "geometry": {
        "type": "Point",
        "coordinates": [
          8.52539358827648,
          -9.55338347688618
        ]
      }
    },
    {
      "type": "Feature",
      "properties": {
        "norad_id": 37216,
        "name": "COSMO-SKYMED 4",
        "group": "resource",
        "lat": -81.90379797906728,
        "lon": -88.15427721458379,
        "alt_km": 630.7623302413285,
        "timestamp": "2025-12-13T08:49:15.350291+00:00",
        "meta_object_name": "COSMO-SKYMED 4",
        "meta_object_id": "2010-060A",
        "meta_epoch": "2025-12-13T01:08:01.301856",
        "meta_mean_motion": 14.82169217,
        "meta_eccentricity": 0.00013476,
        "meta_inclination": 97.8809,
        "meta_ra_of_asc_node": 168.3659,
        "meta_arg_of_pericenter": 76.9212,
        "meta_mean_anomaly": 283.2151,
        "meta_ephemeris_type": 0,
        "meta_classification_type": "U",
        "meta_norad_cat_id": 37216,
        "meta_element_set_no": 999,
        "meta_rev_at_epoch": 81699,
        "meta_bstar": 0.00010904155,
        "meta_mean_motion_dot": 8.16e-06,
        "meta_mean_motion_ddot": 0,
        "tle_line1": "1 37216U 10060A   25347.04723729  .00000816  00000+0  10904-3 0  9992",
        "tle_line2": "2 37216  97.8809 168.3659 0001347  76.9212 283.2151 14.82169217816998"
      },
      "geometry": {
        "type": "Point",
        "coordinates": [
          -88.15427721458379,
          -81.90379797906728
        ]
      }
    },
    {
      "type": "Feature",
      "properties": {
        "norad_id": 37387,
        "name": "RESOURCESAT-2",
        "group": "resource",
        "lat": 79.07329396937797,
        "lon": -75.83139446295405,
        "alt_km": 809.9522986954353,
        "timestamp": "2025-12-13T08:49:15.350301+00:00",
        "meta_object_name": "RESOURCESAT-2",
        "meta_object_id": "2011-015A",
        "meta_epoch": "2025-12-12T22:14:02.571360",
        "meta_mean_motion": 14.21597368,
        "meta_eccentricity": 0.0006432,
        "meta_inclination": 98.7878,
        "meta_ra_of_asc_node": 50.4774,
        "meta_arg_of_pericenter": 42.2892,
        "meta_mean_anomaly": 317.878,
        "meta_ephemeris_type": 0,
        "meta_classification_type": "U",
        "meta_norad_cat_id": 37387,
        "meta_element_set_no": 999,
        "meta_rev_at_epoch": 75971,
        "meta_bstar": 0.00013092334,
        "meta_mean_motion_dot": 2.43e-06,
        "meta_mean_motion_ddot": 0,
        "tle_line1": "1 37387U 11015A   25346.92641865  .00000243  00000+0  13092-3 0  9993",
        "tle_line2": "2 37387  98.7878  50.4774 0006432  42.2892 317.8780 14.21597368759715"
      },
      "geometry": {
        "type": "Point",
        "coordinates": [
          -75.83139446295405,
          79.07329396937797
        ]
      }
    }
  ]
}